{
  "type": "FeatureCollection",
  "features": [
    {
      "type": "Feature",
      "properties": {
        "norad_id": 57400,
        "name": "TIANMU-1 08",
        "group": "weather",
        "lat": 62.89123716431835,
        "lon": -128.65011296152426,
        "alt_km": 471.23960997253107,
        "timestamp": "2025-12-13T05:42:57.139972+00:00",
        "meta_object_name": "TIANMU-1 08",
        "meta_object_id": "2023-101B",
        "meta_epoch": "2025-12-12T07:12:25.525152",
        "meta_mean_motion": 15.28045563,
        "meta_eccentricity": 0.00075128,
        "meta_inclination": 97.2868,
        "meta_ra_of_asc_node": 35.9577,
        "meta_arg_of_pericenter": 85.1167,
        "meta_mean_anomaly": 275.0931,
        "meta_ephemeris_type": 0,
        "meta_classification_type": "U",
        "meta_norad_cat_id": 57400,
        "meta_element_set_no": 999,
        "meta_rev_at_epoch": 13308,
        "meta_bstar": 0.00041675661,
        "meta_mean_motion_dot": 0.00011342,
        "meta_mean_motion_ddot": 0,
        "tle_line1": "1 57400U 23101B   25346.30029543  .00011342  00000+0  41676-3 0  9996",
        "tle_line2": "2 57400  97.2868  35.9577 0007512  85.1167 275.0931 15.28045563133088"
      },
      "geometry": {
        "type": "Point",
        "coordinates": [
          -128.65011296152426,
          62.89123716431835
        ]
      }
    },
    {
      "type": "Feature",
      "properties": {
        "norad_id": 57401,
        "name": "TIANMU-1 09",
        "group": "weather",
        "lat": -8.907318846706087,
        "lon": -144.7605077367244,
        "alt_km": 487.05348522886834,
        "timestamp": "2025-12-13T05:42:57.139985+00:00",
        "meta_object_name": "TIANMU-1 09",
        "meta_object_id": "2023-101C",
        "meta_epoch": "2025-12-12T06:53:24.469728",
        "meta_mean_motion": 15.28075135,
        "meta_eccentricity": 0.00067857,
        "meta_inclination": 97.2825,
        "meta_ra_of_asc_node": 35.4584,
        "meta_arg_of_pericenter": 85.1,
        "meta_mean_anomaly": 275.1014,
        "meta_ephemeris_type": 0,
        "meta_classification_type": "U",
        "meta_norad_cat_id": 57401,
        "meta_element_set_no": 999,
        "meta_rev_at_epoch": 13308,
        "meta_bstar": 0.00044202757,
        "meta_mean_motion_dot": 0.00012044,
        "meta_mean_motion_ddot": 0,
        "tle_line1": "1 57401U 23101C   25346.28708877  .00012044  00000+0  44203-3 0  9997",
        "tle_line2": "2 57401  97.2825  35.4584 0006785  85.1000 275.1014 15.28075135133083"
      },
      "geometry": {
        "type": "Point",
        "coordinates": [
          -144.7605077367244,
          -8.907318846706087
        ]
      }
    },
    {
      "type": "Feature",
      "properties": {
        "norad_id": 57402,
        "name": "TIANMU-1 10",
        "group": "weather",
        "lat": 0.46505290750357775,
        "lon": 37.17872519859344,
        "alt_km": 483.6335704006815,
        "timestamp": "2025-12-13T05:42:57.139998+00:00",
        "meta_object_name": "TIANMU-1 10",
        "meta_object_id": "2023-101D",
        "meta_epoch": "2025-12-12T07:42:40.341600",
        "meta_mean_motion": 15.28066385,
        "meta_eccentricity": 0.00085488,
        "meta_inclination": 97.2906,
        "meta_ra_of_asc_node": 36.3412,
        "meta_arg_of_pericenter": 84.6504,
        "meta_mean_anomaly": 275.5711,
        "meta_ephemeris_type": 0,
        "meta_classification_type": "U",
        "meta_norad_cat_id": 57402,
        "meta_element_set_no": 999,
        "meta_rev_at_epoch": 13308,
        "meta_bstar": 0.00040548077,
        "meta_mean_motion_dot": 0.00011042,
        "meta_mean_motion_ddot": 0,
        "tle_line1": "1 57402U 23101D   25346.32130025  .00011042  00000+0  40548-3 0  9992",
        "tle_line2": "2 57402  97.2906  36.3412 0008548  84.6504 275.5711 15.28066385133081"
      },
      "geometry": {
        "type": "Point",
        "coordinates": [
          37.17872519859344,
          0.46505290750357775
        ]
      }
    },
    {
      "type": "Feature",
      "properties": {
        "norad_id": 57490,
        "name": "FENGYUN 3F",
        "group": "weather",
        "lat": 65.04714645172203,
        "lon": 36.2913535631485,
        "alt_km": 818.9203728117727,
        "timestamp": "2025-12-13T05:42:57.140014+00:00",
        "meta_object_name": "FENGYUN 3F",
        "meta_object_id": "2023-111A",
        "meta_epoch": "2025-12-12T07:25:04.251936",
        "meta_mean_motion": 14.1989344,
        "meta_eccentricity": 6.788e-05,
        "meta_inclination": 98.7084,
        "meta_ra_of_asc_node": 54.6094,
        "meta_arg_of_pericenter": 101.2395,
        "meta_mean_anomaly": 258.8858,
        "meta_ephemeris_type": 0,
        "meta_classification_type": "U",
        "meta_norad_cat_id": 57490,
        "meta_element_set_no": 999,
        "meta_rev_at_epoch": 12234,
        "meta_bstar": 8.7441019e-05,
        "meta_mean_motion_dot": 1.42e-06,
        "meta_mean_motion_ddot": 0,
        "tle_line1": "1 57490U 23111A   25346.30907699  .00000142  00000+0  87441-4 0  9990",
        "tle_line2": "2 57490  98.7084  54.6094 0000678 101.2395 258.8858 14.19893440122342"
      },
      "geometry": {
        "type": "Point",
        "coordinates": [
          36.2913535631485,
          65.04714645172203
        ]
      }
    },
    {
      "type": "Feature",
      "properties": {
        "norad_id": 58584,
        "name": "ARKTIKA-M 2",
        "group": "weather",
        "lat": 35.79251240446363,
        "lon": -26.5254320201208,
        "alt_km": 18368.159774628544,
        "timestamp": "2025-12-13T05:42:57.140029+00:00",
        "meta_object_name": "ARKTIKA-M 2",
        "meta_object_id": "2023-198A",
        "meta_epoch": "2025-12-08T20:10:13.977120",
        "meta_mean_motion": 2.0060476,
        "meta_eccentricity": 0.68646991,
        "meta_inclination": 63.2247,
        "meta_ra_of_asc_node": 175.3152,
        "meta_arg_of_pericenter": 268.1185,
        "meta_mean_anomaly": 18.8267,
        "meta_ephemeris_type": 0,
        "meta_classification_type": "U",
        "meta_norad_cat_id": 58584,
        "meta_element_set_no": 999,
        "meta_rev_at_epoch": 1450,
        "meta_bstar": 0,
        "meta_mean_motion_dot": 1.66e-06,
        "meta_mean_motion_ddot": 0,
        "tle_line1": "1 58584U 23198A   25342.84043955  .00000166  00000+0  00000+0 0  9998",
        "tle_line2": "2 58584  63.2247 175.3152 6864699 268.1185  18.8267  2.00604760 14506"
      },
      "geometry": {
        "type": "Point",
        "coordinates": [
          -26.5254320201208,
          35.79251240446363
        ]
      }
    },
    {
      "type": "Feature",
      "properties": {
        "norad_id": 58645,
        "name": "TIANMU-1 11",
        "group": "weather",
        "lat": 6.305326260920708,
        "lon": -172.32874432810536,
        "alt_km": 498.0768411644931,
        "timestamp": "2025-12-13T05:42:57.140046+00:00",
        "meta_object_name": "TIANMU-1 11",
        "meta_object_id": "2023-205A",
        "meta_epoch": "2025-12-12T08:28:44.647392",
        "meta_mean_motion": 15.24592397,
        "meta_eccentricity": 0.00079458,
        "meta_inclination": 97.3612,
        "meta_ra_of_asc_node": 5.9833,
        "meta_arg_of_pericenter": 311.9679,
        "meta_mean_anomaly": 48.0881,
        "meta_ephemeris_type": 0,
        "meta_classification_type": "U",
        "meta_norad_cat_id": 58645,
        "meta_element_set_no": 999,
        "meta_rev_at_epoch": 10903,
        "meta_bstar": 0.00038839472,
        "meta_mean_motion_dot": 9.515e-05,
        "meta_mean_motion_ddot": 0,
        "tle_line1": "1 58645U 23205A   25346.35329453  .00009515  00000+0  38839-3 0  9997",
        "tle_line2": "2 58645  97.3612   5.9833 0007945 311.9679  48.0881 15.24592397109036"
      },
      "geometry": {
        "type": "Point",
        "coordinates": [
          -172.32874432810536,
          6.305326260920708
        ]
      }
    },
    {
      "type": "Feature",
      "properties": {
        "norad_id": 58646,
        "name": "TIANMU-1 12",
        "group": "weather",
        "lat": 25.322214839322097,
        "lon": 3.15163965648163,
        "alt_km": 492.01168433738985,
        "timestamp": "2025-12-13T05:42:57.140060+00:00",
        "meta_object_name": "TIANMU-1 12",
        "meta_object_id": "2023-205B",
        "meta_epoch": "2025-12-12T07:32:59.134848",
        "meta_mean_motion": 15.24474552,
        "meta_eccentricity": 0.00058672,
        "meta_inclination": 97.36,
        "meta_ra_of_asc_node": 5.7509,
        "meta_arg_of_pericenter": 293.3682,
        "meta_mean_anomaly": 66.6938,
        "meta_ephemeris_type": 0,
        "meta_classification_type": "U",
        "meta_norad_cat_id": 58646,
        "meta_element_set_no": 999,
        "meta_rev_at_epoch": 10901,
        "meta_bstar": 0.00038655578,
        "meta_mean_motion_dot": 9.433e-05,
        "meta_mean_motion_ddot": 0,
        "tle_line1": "1 58646U 23205B   25346.31457332  .00009433  00000+0  38656-3 0  9998",
        "tle_line2": "2 58646  97.3600   5.7509 0005867 293.3682  66.6938 15.24474552109019"
      },
      "geometry": {
        "type": "Point",
        "coordinates": [
          3.15163965648163,
          25.322214839322097
        ]
      }
    }
  ]
}